[{"OBJECT_NAME":"ZIYUAN 3-02 (ZY 3-02)","OBJECT_ID":"2016-033A","EPOCH":"2026-03-09T22:29:55.337856","MEAN_MOTION":15.2155989,"ECCENTRICITY":0.00109987,"INCLINATION":97.3895,"RA_OF_ASC_NODE":146.5883,"ARG_OF_PERICENTER":297.9383,"MEAN_ANOMALY":62.0739,"EPHEMERIS_TYPE":0,"CLASSIFICATION_TYPE":"U","NORAD_CAT_ID":41556,"ELEMENT_SET_NO":999,"REV_AT_EPOCH":54289,"BSTAR":0.00035842327,"MEAN_MOTION_DOT":8.025e-5,"MEAN_MOTION_DDOT":0},{"OBJECT_NAME":"HXMT (HUIYAN)","OBJECT_ID":"2017-034A","EPOCH":"2026-03-09T23:24:09.166176","MEAN_MOTION":15.17468939,"ECCENTRICITY":0.00329459,"INCLINATION":43.0157,"RA_OF_ASC_NODE":15.0865,"ARG_OF_PERICENTER":237.7405,"MEAN_ANOMALY":122.0249,"EPHEMERIS_TYPE":0,"CLASSIFICATION_TYPE":"U","NORAD_CAT_ID":42758,"ELEMENT_SET_NO":999,"REV_AT_EPOCH":48258,"BSTAR":0.00038670516,"MEAN_MOTION_DOT":7.762e-5,"MEAN_MOTION_DDOT":0}]
